{"type":"FeatureCollection","features":[{"type":"Feature","id":1,"geometry":{"type":"Polygon","coordinates":[[[-62.04076,9.96667,0.0],[-62.19684,10.02056,0.0],[-62.33869,9.94418,0.0],[-62.30069,9.76981,0.0],[-62.44443,9.54313,0.0],[-62.32426,9.36327,0.0],[-62.32982,9.12953,0.0],[-62.05544,9.05393,0.0],[-62.05592,8.87478,0.0],[-61.99524,8.89294,0.0],[-62.27764,8.57021,0.0],[-62.88251,8.27595,0.0],[-63.15941,8.31992,0.0],[-63.47292,8.16018,0.0],[-63.79216,8.1385,0.0],[-64.01388,7.94648,0.0],[-64.25529,8.0796,0.0],[-64.39671,7.99253,0.0],[-64.50222,8.02732,0.0],[-64.58728,7.91641,0.0],[-64.47974,7.82184,0.0],[-64.51527,7.76526,0.0],[-64.81528,7.65902,0.0],[-65.13983,7.82067,0.0],[-65.60876,7.91848,0.0],[-65.86931,7.69656,0.0],[-66.46286,7.59098,0.0],[-66.59024,7.32789,0.0],[-67.0426,7.14266,0.0],[-67.01765,6.88213,0.0],[-67.14925,6.47549,0.0],[-67.50021,6.16489,0.0],[-67.4244,6.00088,0.0],[-67.62998,5.80001,0.0],[-67.60868,5.52945,0.0],[-67.87005,5.26744,0.0],[-67.8265,4.97856,0.0],[-68.16445,5.02112,0.0],[-68.54394,4.79864,0.0],[-68.86652,4.77512,0.0],[-69.04154,4.61222,0.0],[-69.26658,4.64897,0.0],[-69.38539,4.51051,0.0],[-69.78728,4.44225,0.0],[-69.94371,4.51338,0.0],[-70.5733,4.50647,0.0],[-70.35566,4.35676,0.0],[-70.28836,4.14912,0.0],[-70.35792,4.05875,0.0],[-70.58292,4.08708,0.0],[-70.80879,3.99878,0.0],[-71.00296,3.81767,0.0],[-71.18542,3.80875,0.0],[-71.39186,3.68445,0.0],[-71.43569,3.56839,0.0],[-72.01466,3.4964,0.0],[-72.19145,3.25339,0.0],[-72.91167,3.19167,0.0],[-73.07271,3.10354,0.0],[-73.86352,3.79418,0.0],[-74.00515,4.11012,0.0],[-74.21738,4.0109,0.0],[-74.29662,3.8189,0.0],[-74.60312,3.51401,0.0],[-74.67326,3.18635,0.0],[-75.1471,2.722,0.0],[-75.18056,2.50771,0.0],[-75.73715,1.78246,0.0],[-76.12,1.55215,0.0],[-76.24225,1.68309,0.0],[-76.38138,1.66719,0.0],[-76.37191,1.74252,0.0],[-76.58854,1.86616,0.0],[-76.62309,1.97481,0.0],[-76.70793,1.96134,0.0],[-76.85141,1.53453,0.0],[-76.92893,1.50049,0.0],[-76.93538,1.2754,0.0],[-77.16908,1.18974,0.0],[-77.4041,0.7969,0.0],[-77.67438,0.73456,0.0],[-77.531,0.65169,0.0],[-77.68847,0.62496,0.0],[-77.49919,0.28806,0.0],[-77.58454,0.31245,0.0],[-77.85754,-0.02368,0.0],[-77.75918,-0.22536,0.0],[-77.87965,-0.27846,0.0],[-77.94405,-0.50122,0.0],[-77.82991,-0.81307,0.0],[-77.9396,-1.02328,0.0],[-78.02886,-0.95578,0.0],[-78.00978,-1.0517,0.0],[-78.07767,-1.05862,0.0],[-77.98604,-1.1209,0.0],[-78.09644,-1.508,0.0],[-78.2169,-1.47106,0.0],[-78.12721,-1.64874,0.0],[-78.20514,-1.96194,0.0],[-78.15505,-2.07514,0.0],[-78.26753,-2.17005,0.0],[-78.24443,-2.26398,0.0],[-78.32203,-2.25494,0.0],[-78.25865,-2.3458,0.0],[-78.34851,-2.6086,0.0],[-78.52957,-2.68702,0.0],[-78.56762,-2.81068,0.0],[-78.50616,-2.76402,0.0],[-78.49935,-2.85842,0.0],[-78.60833,-2.94311,0.0],[-78.7214,-3.28518,0.0],[-78.80804,-3.30066,0.0],[-78.75372,-3.47924,0.0],[-78.59018,-3.47806,0.0],[-78.79845,-3.58661,0.0],[-78.829,-3.80301,0.0],[-78.93998,-3.6129,0.0],[-78.91029,-3.92771,0.0],[-79.07265,-4.0856,0.0],[-79.11888,-4.42506,0.0],[-79.32749,-4.50932,0.0],[-79.45192,-4.99834,0.0],[-79.37528,-5.12409,0.0],[-79.46409,-5.05497,0.0],[-79.50199,-5.15943,0.0],[-79.41427,-5.27083,0.0],[-79.39011,-5.14841,0.0],[-79.31851,-5.16938,0.0],[-79.41161,-5.3021,0.0],[-79.48673,-5.25929,0.0],[-79.40971,-5.36962,0.0],[-79.33926,-5.29237,0.0],[-79.37075,-5.44756,0.0],[-79.30384,-5.57906,0.0],[-79.28293,-5.47734,0.0],[-79.209,-5.50911,0.0],[-79.19508,-5.65285,0.0],[-79.31526,-5.63543,0.0],[-79.24693,-5.8221,0.0],[-79.17935,-5.76063,0.0],[-79.17268,-5.99071,0.0],[-78.8491,-6.01305,0.0],[-79.05435,-6.16206,0.0],[-79.16855,-6.13675,0.0],[-79.23178,-5.96873,0.0],[-79.36288,-6.03124,0.0],[-79.16747,-6.23209,0.0],[-79.17401,-6.42635,0.0],[-79.00642,-6.44766,0.0],[-79.03469,-6.26779,0.0],[-79.13339,-6.36891,0.0],[-79.10358,-6.18321,0.0],[-78.97836,-6.21202,0.0],[-78.85565,-6.37238,0.0],[-78.77288,-6.25661,0.0],[-78.74575,-6.31828,0.0],[-78.53234,-6.25486,0.0],[-78.69861,-6.11105,0.0],[-78.6741,-6.01899,0.0],[-78.47417,-6.03187,0.0],[-78.39395,-6.19471,0.0],[-78.2206,-6.26283,0.0],[-78.29146,-6.35504,0.0],[-78.10587,-6.39469,0.0],[-78.15823,-6.45771,0.0],[-78.08257,-6.46873,0.0],[-78.00784,-6.67127,0.0],[-77.99724,-6.54077,0.0],[-77.97952,-6.71167,0.0],[-77.90398,-6.75067,0.0],[-77.92634,-6.95379,0.0],[-77.84199,-6.9411,0.0],[-77.85106,-6.99859,0.0],[-77.78434,-6.93194,0.0],[-77.8956,-6.89485,0.0],[-78.00317,-6.47344,0.0],[-77.83448,-6.83291,0.0],[-77.69695,-6.79683,0.0],[-77.64675,-6.94353,0.0],[-77.74366,-6.98136,0.0],[-77.39852,-7.07425,0.0],[-77.57909,-7.09624,0.0],[-77.48054,-7.21005,0.0],[-77.55977,-7.34062,0.0],[-77.50605,-7.49258,0.0],[-77.41463,-7.42531,0.0],[-77.42415,-7.56579,0.0],[-77.34075,-7.56598,0.0],[-77.48074,-7.63493,0.0],[-77.42353,-7.7156,0.0],[-77.34467,-7.70945,0.0],[-77.3541,-7.64597,0.0],[-77.23349,-7.6855,0.0],[-77.42715,-7.77039,0.0],[-77.33889,-7.7828,0.0],[-77.38196,-7.84253,0.0],[-77.21884,-7.79808,0.0],[-77.32306,-7.98921,0.0],[-77.03301,-7.96319,0.0],[-77.1138,-7.99636,0.0],[-77.02843,-8.09784,0.0],[-77.20251,-8.02012,0.0],[-77.20088,-8.10747,0.0],[-77.26444,-8.09791,0.0],[-77.16238,-8.16582,0.0],[-77.18629,-8.2404,0.0],[-77.11349,-8.20659,0.0],[-77.15555,-8.28524,0.0],[-77.04174,-8.27458,0.0],[-77.08367,-8.36092,0.0],[-76.98341,-8.38695,0.0],[-76.92806,-8.25172,0.0],[-76.8273,-8.26791,0.0],[-76.89834,-8.33577,0.0],[-76.803,-8.39503,0.0],[-76.95425,-8.38311,0.0],[-76.92581,-8.43324,0.0],[-77.03552,-8.51684,0.0],[-76.94756,-8.53424,0.0],[-76.89372,-8.45524,0.0],[-76.87264,-8.54581,0.0],[-76.71357,-8.46238,0.0],[-76.64422,-8.50291,0.0],[-76.72577,-8.57526,0.0],[-76.83193,-8.52313,0.0],[-76.86315,-8.62527,0.0],[-77.0034,-8.58707,0.0],[-77.01562,-8.70491,0.0],[-76.94414,-8.69262,0.0],[-77.03397,-8.71634,0.0],[-76.92435,-8.79412,0.0],[-76.92961,-8.63185,0.0],[-76.68465,-8.61821,0.0],[-76.92286,-8.73417,0.0],[-76.85591,-8.83153,0.0],[-76.76863,-8.69677,0.0],[-76.73537,-8.83678,0.0],[-76.59801,-8.70143,0.0],[-76.56494,-8.84141,0.0],[-76.65257,-8.83873,0.0],[-76.6325,-8.78718,0.0],[-76.69547,-8.92955,0.0],[-76.81313,-8.8762,0.0],[-76.68667,-9.04094,0.0],[-76.74185,-9.03777,0.0],[-76.6394,-9.18015,0.0],[-76.67381,-9.25353,0.0],[-76.54949,-9.3371,0.0],[-76.59811,-9.44184,0.0],[-76.38144,-9.46725,0.0],[-76.28093,-9.35898,0.0],[-76.23961,-9.47145,0.0],[-76.36125,-9.50132,0.0],[-76.4051,-9.61951,0.0],[-76.31776,-9.52775,0.0],[-76.276,-9.63371,0.0],[-76.15847,-9.54384,0.0],[-76.11268,-9.56926,0.0],[-76.22629,-9.64447,0.0],[-76.12431,-9.75487,0.0],[-75.97993,-9.74871,0.0],[-75.95598,-9.62927,0.0],[-75.91085,-9.77634,0.0],[-75.81214,-9.8152,0.0],[-75.78467,-9.75307,0.0],[-75.82465,-9.86666,0.0],[-75.72329,-9.8749,0.0],[-75.79687,-9.92136,0.0],[-75.88169,-9.82372,0.0],[-75.82962,-9.90623,0.0],[-75.89335,-10.01267,0.0],[-75.77235,-10.04771,0.0],[-75.74964,-10.21223,0.0],[-75.83665,-10.16442,0.0],[-75.96707,-10.24355,0.0],[-75.9174,-10.25185,0.0],[-75.97097,-10.30407,0.0],[-75.88069,-10.25162,0.0],[-75.92999,-10.36484,0.0],[-75.85988,-10.30723,0.0],[-75.85576,-10.39453,0.0],[-75.86822,-10.24383,0.0],[-75.73545,-10.22801,0.0],[-75.73946,-10.08127,0.0],[-75.66735,-10.03174,0.0],[-75.83873,-9.98225,0.0],[-75.61534,-10.02553,0.0],[-75.82074,-10.3639,0.0],[-75.74179,-10.33509,0.0],[-75.73121,-10.40173,0.0],[-75.69735,-10.27346,0.0],[-75.6333,-10.31666,0.0],[-75.71767,-10.37781,0.0],[-75.70076,-10.46664,0.0],[-75.79545,-10.47248,0.0],[-75.72183,-10.58206,0.0],[-75.58094,-10.52453,0.0],[-75.59293,-10.67401,0.0],[-75.8195,-10.64539,0.0],[-75.7234,-10.73802,0.0],[-75.40056,-10.75676,0.0],[-75.77183,-10.73369,0.0],[-75.75902,-10.82794,0.0],[-75.60584,-10.748,0.0],[-75.59355,-10.88207,0.0],[-75.4594,-10.90322,0.0],[-75.61736,-10.9416,0.0],[-75.71912,-10.88109,0.0],[-75.70042,-10.96653,0.0],[-75.47925,-10.97411,0.0],[-75.65134,-10.96472,0.0],[-75.50663,-11.03223,0.0],[-75.5711,-11.14346,0.0],[-75.46728,-11.12225,0.0],[-75.61295,-11.23877,0.0],[-75.52653,-11.30253,0.0],[-75.4211,-11.25003,0.0],[-75.3971,-11.46571,0.0],[-75.30154,-11.4753,0.0],[-75.38387,-11.55446,0.0],[-75.26849,-11.52484,0.0],[-75.24638,-11.58174,0.0],[-75.22309,-11.51434,0.0],[-75.14597,-11.60155,0.0],[-75.13472,-11.52493,0.0],[-75.06986,-11.59789,0.0],[-75.11016,-11.53258,0.0],[-75.04981,-11.50153,0.0],[-75.12935,-11.452,0.0],[-75.07621,-11.39172,0.0],[-75.22239,-11.30685,0.0],[-75.17323,-11.18866,0.0],[-75.09002,-11.18317,0.0],[-75.10759,-11.09653,0.0],[-75.05857,-11.2627,0.0],[-74.9596,-11.25981,0.0],[-74.83654,-11.41222,0.0],[-74.87521,-11.51541,0.0],[-74.64488,-11.52681,0.0],[-74.66423,-11.635,0.0],[-74.56107,-11.6962,0.0],[-74.63687,-11.73131,0.0],[-74.58809,-11.8431,0.0],[-74.52508,-11.82037,0.0],[-74.37296,-11.97956,0.0],[-74.61499,-11.90841,0.0],[-74.73734,-11.69061,0.0],[-74.78672,-11.72172,0.0],[-74.68136,-11.8319,0.0],[-74.7332,-11.83887,0.0],[-74.85607,-11.69186,0.0],[-74.81385,-11.73656,0.0],[-74.88959,-11.78921,0.0],[-74.80038,-11.79389,0.0],[-74.85854,-11.86574,0.0],[-74.77443,-11.86222,0.0],[-74.83166,-11.88935,0.0],[-74.72535,-12.01086,0.0],[-74.93912,-11.92152,0.0],[-74.90422,-12.00688,0.0],[-74.72179,-12.05148,0.0],[-74.68714,-11.84765,0.0],[-74.63896,-11.97108,0.0],[-74.44643,-12.00024,0.0],[-74.36446,-12.1843,0.0],[-74.41115,-12.11939,0.0],[-74.53843,-12.13674,0.0],[-74.42727,-12.08442,0.0],[-74.54237,-12.02331,0.0],[-74.57219,-12.10022,0.0],[-74.65334,-12.01479,0.0],[-74.68216,-12.05956,0.0],[-74.53949,-12.1428,0.0],[-74.61598,-12.1545,0.0],[-74.57308,-12.21338,0.0],[-74.45649,-12.18213,0.0],[-74.50561,-12.23618,0.0],[-74.42125,-12.28613,0.0],[-74.45001,-12.33792,0.0],[-74.2937,-12.33519,0.0],[-74.37492,-12.39855,0.0],[-74.30791,-12.53084,0.0],[-74.17025,-12.43781,0.0],[-74.14723,-12.59583,0.0],[-74.0491,-12.54287,0.0],[-73.96168,-12.63228,0.0],[-74.06978,-12.74794,0.0],[-73.94064,-12.72983,0.0],[-73.97128,-12.82029,0.0],[-73.92417,-12.75844,0.0],[-73.86859,-12.83794,0.0],[-73.70789,-12.85167,0.0],[-73.81063,-12.96056,0.0],[-73.68311,-13.01258,0.0],[-73.72137,-13.06065,0.0],[-73.63282,-13.02524,0.0],[-73.65672,-13.10112,0.0],[-73.50185,-13.18076,0.0],[-73.3938,-13.3833,0.0],[-73.33995,-13.3277,0.0],[-73.41249,-13.15612,0.0],[-73.33128,-13.27297,0.0],[-73.24809,-13.24318,0.0],[-73.3152,-13.28147,0.0],[-73.21468,-13.30213,0.0],[-73.23517,-13.38971,0.0],[-73.10002,-13.44441,0.0],[-72.99579,-13.39373,0.0],[-72.9875,-13.33519,0.0],[-73.18797,-13.35863,0.0],[-73.20994,-13.29709,0.0],[-73.13036,-13.27539,0.0],[-73.31079,-13.20536,0.0],[-73.10551,-13.15473,0.0],[-73.21324,-13.06194,0.0],[-73.03631,-13.08135,0.0],[-73.09086,-13.00127,0.0],[-72.98744,-13.01837,0.0],[-72.95357,-12.86266,0.0],[-72.75521,-12.98175,0.0],[-72.97655,-13.07194,0.0],[-72.66035,-13.00288,0.0],[-72.77786,-12.84691,0.0],[-72.70302,-12.85336,0.0],[-72.75979,-12.82861,0.0],[-72.65795,-12.74119,0.0],[-72.56817,-12.77325,0.0],[-72.53871,-12.71644,0.0],[-72.6505,-12.64803,0.0],[-72.56205,-12.60461,0.0],[-72.89444,-12.59238,0.0],[-72.83531,-12.55122,0.0],[-72.56087,-12.5828,0.0],[-72.51118,-12.51686,0.0],[-72.52189,-12.5998,0.0],[-72.33774,-12.59592,0.0],[-72.11272,-12.84753,0.0],[-72.27826,-12.7018,0.0],[-72.3124,-12.79128,0.0],[-72.35234,-12.68663,0.0],[-72.43914,-12.84224,0.0],[-72.40496,-12.93472,0.0],[-72.4739,-12.82285,0.0],[-72.40122,-12.67227,0.0],[-72.50658,-12.6604,0.0],[-72.47227,-12.71713,0.0],[-72.6679,-12.85384,0.0],[-72.67531,-12.95121,0.0],[-72.46094,-13.04439,0.0],[-72.8965,-13.08276,0.0],[-72.68381,-13.07594,0.0],[-72.75179,-13.18201,0.0],[-72.6561,-13.19719,0.0],[-72.71399,-13.32132,0.0],[-72.52272,-13.22222,0.0],[-72.61433,-13.21442,0.0],[-72.64999,-13.07774,0.0],[-72.52018,-13.20853,0.0],[-72.46198,-13.1564,0.0],[-72.55269,-13.07313,0.0],[-72.35865,-13.10907,0.0],[-72.6052,-12.88402,0.0],[-72.26788,-13.0453,0.0],[-72.35087,-12.88156,0.0],[-72.27359,-12.91495,0.0],[-72.24045,-12.7842,0.0],[-72.20179,-12.93707,0.0],[-72.04429,-12.97476,0.0],[-72.10586,-12.8887,0.0],[-72.04319,-12.83989,0.0],[-72.21922,-12.61834,0.0],[-72.02103,-12.76578,0.0],[-71.99141,-12.89162,0.0],[-71.89986,-12.77568,0.0],[-71.99181,-12.81665,0.0],[-71.92225,-12.76202,0.0],[-72.00871,-12.77975,0.0],[-71.93871,-12.75196,0.0],[-72.03182,-12.7588,0.0],[-72.28956,-12.49655,0.0],[-72.47158,-12.43652,0.0],[-72.12809,-12.53195,0.0],[-72.23172,-12.42472,0.0],[-72.08292,-12.47967,0.0],[-72.10885,-12.4095,0.0],[-72.03426,-12.38345,0.0],[-72.0699,-12.49609,0.0],[-71.98655,-12.57718,0.0],[-72.05506,-12.60108,0.0],[-72.06539,-12.51602,0.0],[-72.21091,-12.56962,0.0],[-72.05781,-12.61793,0.0],[-72.12091,-12.62414,0.0],[-72.01174,-12.73519,0.0],[-71.9299,-12.70481,0.0],[-72.04898,-12.6641,0.0],[-71.99791,-12.59045,0.0],[-71.88757,-12.68356,0.0],[-71.85964,-12.8877,0.0],[-71.75989,-12.97605,0.0],[-71.72934,-12.91522,0.0],[-71.77023,-13.00561,0.0],[-71.66499,-13.11964,0.0],[-71.60852,-13.09289,0.0],[-71.61976,-13.19183,0.0],[-71.55928,-13.14425,0.0],[-71.52124,-13.25593,0.0],[-71.45337,-13.20088,0.0],[-71.37766,-13.31646,0.0],[-71.32714,-13.22827,0.0],[-71.19358,-13.38496,0.0],[-71.06337,-13.25901,0.0],[-71.13532,-13.38748,0.0],[-70.99944,-13.38064,0.0],[-71.04896,-13.45232,0.0],[-71.03274,-13.50827,0.0],[-70.93641,-13.476,0.0],[-70.97515,-13.59742,0.0],[-70.88568,-13.53976,0.0],[-70.83581,-13.62978,0.0],[-70.84609,-13.42438,0.0],[-70.75722,-13.52055,0.0],[-70.67267,-13.46319,0.0],[-70.63517,-13.56359,0.0],[-70.53796,-13.52566,0.0],[-70.49535,-13.7782,0.0],[-70.39706,-13.60056,0.0],[-70.21552,-13.69139,0.0],[-70.22612,-13.77765,0.0],[-70.08869,-13.77648,0.0],[-70.08845,-13.7109,0.0],[-70.03149,-13.8165,0.0],[-69.88462,-13.81978,0.0],[-69.95657,-13.90448,0.0],[-69.75795,-13.9149,0.0],[-69.82851,-14.14236,0.0],[-69.75182,-14.07179,0.0],[-69.69066,-14.1264,0.0],[-69.6837,-13.98344,0.0],[-69.53589,-14.06824,0.0],[-69.64812,-14.2432,0.0],[-69.60209,-14.34236,0.0],[-69.45403,-14.16362,0.0],[-69.50947,-14.45259,0.0],[-69.43762,-14.29223,0.0],[-69.37686,-14.30874,0.0],[-69.40028,-14.19243,0.0],[-69.31403,-14.32226,0.0],[-69.35144,-14.46798,0.0],[-69.3006,-14.39075,0.0],[-69.2702,-14.47204,0.0],[-69.23997,-14.37527,0.0],[-69.17687,-14.51639,0.0],[-69.12212,-14.44428,0.0],[-69.13447,-14.60893,0.0],[-69.01513,-14.63328,0.0],[-69.0866,-14.72118,0.0],[-68.92956,-14.69896,0.0],[-69.08953,-14.81874,0.0],[-68.97754,-14.79804,0.0],[-69.02488,-14.9201,0.0],[-68.85138,-14.85186,0.0],[-68.89237,-14.88996,0.0],[-68.81313,-14.87975,0.0],[-68.77092,-14.97107,0.0],[-68.90663,-14.9513,0.0],[-68.8944,-15.02531,0.0],[-68.75945,-15.02633,0.0],[-68.84531,-15.05921,0.0],[-68.77191,-15.13071,0.0],[-68.95853,-15.06096,0.0],[-68.90641,-15.16471,0.0],[-69.042,-15.08136,0.0],[-69.00636,-15.16345,0.0],[-69.06,-15.17764,0.0],[-68.95972,-15.20056,0.0],[-68.98746,-15.26019,0.0],[-68.90854,-15.19606,0.0],[-68.83518,-15.23648,0.0],[-68.89763,-15.29116,0.0],[-68.69353,-15.35607,0.0],[-68.79273,-15.35856,0.0],[-68.74883,-15.41331,0.0],[-68.6376,-15.40556,0.0],[-68.86193,-15.45793,0.0],[-69.01988,-15.36114,0.0],[-68.99517,-15.66947,0.0],[-68.94057,-15.58964,0.0],[-68.90302,-15.71769,0.0],[-68.83166,-15.66655,0.0],[-68.83832,-15.7707,0.0],[-68.76749,-15.74968,0.0],[-68.76671,-15.84087,0.0],[-68.71676,-15.80285,0.0],[-68.60469,-15.89498,0.0],[-68.6779,-15.63952,0.0],[-68.60292,-15.57083,0.0],[-68.40137,-15.60565,0.0],[-68.54812,-15.63387,0.0],[-68.47265,-15.69372,0.0],[-68.51332,-15.74819,0.0],[-68.41762,-15.71051,0.0],[-68.47973,-15.79543,0.0],[-68.40029,-15.75615,0.0],[-68.37942,-15.82774,0.0],[-68.29981,-15.71728,0.0],[-68.21551,-15.78275,0.0],[-68.28693,-15.9473,0.0],[-68.15972,-15.89125,0.0],[-68.21767,-16.04534,0.0],[-68.06653,-16.02774,0.0],[-68.17864,-16.10671,0.0],[-68.15243,-16.20288,0.0],[-68.02016,-16.13664,0.0],[-68.03128,-16.27929,0.0],[-67.94379,-16.25517,0.0],[-67.91247,-16.37313,0.0],[-67.85406,-16.3202,0.0],[-67.84536,-16.47012,0.0],[-67.70377,-16.4723,0.0],[-67.6904,-16.53974,0.0],[-67.78687,-16.56951,0.0],[-67.69889,-16.58515,0.0],[-67.73434,-16.64251,0.0],[-67.63726,-16.75236,0.0],[-67.5584,-16.77867,0.0],[-67.44192,-16.66883,0.0],[-67.44843,-16.79153,0.0],[-67.34617,-16.80534,0.0],[-67.3135,-16.89436,0.0],[-67.30717,-16.78164,0.0],[-67.2906,-16.93565,0.0],[-67.20838,-16.9251,0.0],[-67.27073,-17.00767,0.0],[-67.15552,-16.95829,0.0],[-67.09312,-17.03299,0.0],[-67.23904,-17.16904,0.0],[-67.15593,-17.14096,0.0],[-67.12134,-17.23687,0.0],[-67.12533,-17.17439,0.0],[-67.02116,-17.20195,0.0],[-67.06256,-17.1413,0.0],[-66.96635,-17.18289,0.0],[-66.94591,-17.3017,0.0],[-67.01815,-17.26742,0.0],[-67.082,-17.40756,0.0],[-66.86382,-17.3243,0.0],[-66.92207,-17.44348,0.0],[-66.73401,-17.56673,0.0],[-66.85145,-17.41952,0.0],[-66.79529,-17.42775,0.0],[-66.82143,-17.32925,0.0],[-66.76215,-17.43203,0.0],[-66.73857,-17.36148,0.0],[-66.62299,-17.41726,0.0],[-66.70264,-17.22022,0.0],[-66.53865,-17.32945,0.0],[-66.56801,-17.23749,0.0],[-66.49348,-17.28226,0.0],[-66.4505,-17.22318,0.0],[-66.67553,-17.05072,0.0],[-66.62872,-17.01336,0.0],[-66.75197,-16.84323,0.0],[-66.62287,-16.90479,0.0],[-66.65831,-16.6961,0.0],[-66.61095,-16.83954,0.0],[-66.56675,-16.79255,0.0],[-66.47491,-16.85339,0.0],[-66.54728,-16.78961,0.0],[-66.45687,-16.72689,0.0],[-66.31611,-16.9121,0.0],[-66.40553,-16.89427,0.0],[-66.37094,-16.96785,0.0],[-66.46662,-17.02864,0.0],[-66.34528,-17.03169,0.0],[-66.40648,-17.07045,0.0],[-66.33337,-17.09056,0.0],[-66.36385,-16.98986,0.0],[-66.27271,-16.92887,0.0],[-65.82693,-17.30263,0.0],[-65.75554,-17.31494,0.0],[-65.78372,-17.24334,0.0],[-65.71127,-17.20078,0.0],[-65.71323,-17.2764,0.0],[-65.58688,-17.25334,0.0],[-65.6368,-17.36237,0.0],[-65.4501,-17.35144,0.0],[-65.28273,-17.58786,0.0],[-65.25269,-17.52017,0.0],[-65.16269,-17.54082,0.0],[-65.22561,-17.46886,0.0],[-65.07092,-17.66988,0.0],[-65.02205,-17.5767,0.0],[-64.86967,-17.6216,0.0],[-64.73122,-17.82465,0.0],[-64.42794,-17.838,0.0],[-64.33644,-17.96496,0.0],[-64.34283,-17.85622,0.0],[-64.25085,-17.94544,0.0],[-64.31199,-17.84812,0.0],[-64.26268,-17.8176,0.0],[-64.0871,-17.9305,0.0],[-64.0113,-17.88136,0.0],[-63.91612,-17.9575,0.0],[-63.88281,-17.90039,0.0],[-63.721,-18.00985,0.0],[-63.70197,-18.13358,0.0],[-63.53101,-18.16244,0.0],[-63.34074,-18.09113,0.0],[-63.32646,-17.92932,0.0],[-63.16942,-17.88649,0.0],[-63.21701,-17.83415,0.0],[-63.1599,-17.71041,0.0],[-63.20749,-17.64855,0.0],[-63.29315,-17.81035,0.0],[-63.4264,-17.65331,0.0],[-63.39784,-17.59144,0.0],[-63.68293,-17.37691,0.0],[-63.72576,-17.43402,0.0],[-63.79239,-17.17228,0.0],[-63.68293,-17.14373,0.0],[-63.71148,-17.2389,0.0],[-63.59271,-17.33425,0.0],[-63.56898,-17.16298,0.0],[-63.41212,-17.3297,0.0],[-63.40736,-17.18693,0.0],[-63.34073,-17.18693,0.0],[-63.38356,-17.10127,0.0],[-63.32646,-17.07272,0.0],[-63.25032,-17.23928,0.0],[-63.2408,-17.07748,0.0],[-63.13134,-17.27735,0.0],[-62.96478,-17.04892,0.0],[-63.03303,-16.82647,0.0],[-62.983,-16.72555,0.0],[-63.21723,-16.63024,0.0],[-63.25615,-16.49721,0.0],[-63.08888,-16.26383,0.0],[-63.1932,-15.8925,0.0],[-63.11706,-15.55462,0.0],[-62.99333,-15.63552,0.0],[-62.93622,-15.5451,0.0],[-63.05519,-15.42613,0.0],[-62.99333,-15.33095,0.0],[-63.06471,-15.2548,0.0],[-63.0314,-15.11204,0.0],[-62.89566,-15.23901,0.0],[-62.69696,-15.20745,0.0],[-62.51091,-15.32925,0.0],[-62.24668,-15.1376,0.0],[-62.28112,-15.0041,0.0],[-62.07224,-14.94782,0.0],[-62.01163,-14.81037,0.0],[-61.83187,-14.90227,0.0],[-61.45317,-14.81037,0.0],[-61.39148,-14.95864,0.0],[-61.23769,-14.88722,0.0],[-61.07006,-15.06101,0.0],[-61.02503,-14.95584,0.0],[-60.81148,-14.95541,0.0],[-60.66992,-15.07851,0.0],[-60.61067,-15.04243,0.0],[-60.23956,-15.47452,0.0],[-60.17406,-16.26693,0.0],[-59.09972,-16.29503,0.0],[-59.079,-16.12802,0.0],[-58.8524,-16.08402,0.0],[-58.7688,-15.95389,0.0],[-58.72432,-16.21205,0.0],[-58.5552,-16.24075,0.0],[-58.44215,-16.21343,0.0],[-58.39671,-16.05282,0.0],[-58.45972,-15.97215,0.0],[-58.33384,-15.91329,0.0],[-58.25177,-16.00389,0.0],[-58.35263,-16.10473,0.0],[-58.2952,-16.41773,0.0],[-58.18132,-16.59003,0.0],[-58.27135,-16.56448,0.0],[-58.24845,-16.66202,0.0],[-58.12961,-16.61601,0.0],[-58.15459,-16.45026,0.0],[-58.00006,-16.24195,0.0],[-58.10052,-16.05908,0.0],[-57.97183,-15.73572,0.0],[-57.87451,-15.75766,0.0],[-57.7821,-15.65021,0.0],[-57.66401,-15.93006,0.0],[-57.69371,-15.69788,0.0],[-57.60627,-15.85956,0.0],[-57.27226,-15.35308,0.0],[-57.03656,-15.23392,0.0],[-57.22797,-15.10284,0.0],[-57.03489,-15.10194,0.0],[-56.83277,-14.93701,0.0],[-56.66742,-14.56456,0.0],[-56.76637,-14.45997,0.0],[-56.4944,-14.376,0.0],[-56.62907,-14.20497,0.0],[-56.73277,-14.17789,0.0],[-56.7875,-14.27643,0.0],[-56.8249,-14.15163,0.0],[-57.40833,-14.22817,0.0],[-58.07699,-14.59763,0.0],[-58.04925,-14.69549,0.0],[-58.17121,-14.87397,0.0],[-58.09728,-14.91554,0.0],[-58.30641,-15.00408,0.0],[-58.2046,-15.17995,0.0],[-58.29829,-15.06415,0.0],[-58.28766,-15.13689,0.0],[-58.53099,-15.051,0.0],[-58.66065,-15.21249,0.0],[-58.76322,-15.02771,0.0],[-58.75723,-15.09698,0.0],[-58.83174,-15.03836,0.0],[-58.79846,-15.11839,0.0],[-58.85675,-15.12826,0.0],[-58.9746,-14.99724,0.0],[-59.02484,-15.05768,0.0],[-59.49454,-14.49741,0.0],[-59.59016,-14.24141,0.0],[-59.54515,-14.09906,0.0],[-59.62978,-13.93442,0.0],[-59.78785,-13.89076,0.0],[-59.80237,-13.73078,0.0],[-59.64883,-13.83423,0.0],[-59.76891,-13.65295,0.0],[-59.82316,-13.69822,0.0],[-59.76891,-13.58777,0.0],[-59.90926,-13.47669,0.0],[-59.85409,-13.41387,0.0],[-59.94547,-13.1327,0.0],[-59.84619,-13.27436,0.0],[-59.76327,-13.19143,0.0],[-59.74787,-13.36605,0.0],[-59.60996,-12.92229,0.0],[-59.66844,-12.89577,0.0],[-59.72955,-13.00633,0.0],[-59.73741,-12.89295,0.0],[-59.91129,-12.83367,0.0],[-59.92344,-12.98194,0.0],[-60.03732,-12.95893,0.0],[-59.94985,-12.45435,0.0],[-60.09433,-12.46635,0.0],[-60.0364,-12.55637,0.0],[-60.09665,-12.9013,0.0],[-60.15844,-12.72359,0.0],[-60.32827,-12.65711,0.0],[-60.47243,-12.48099,0.0],[-60.31539,-12.46453,0.0],[-60.36572,-12.32343,0.0],[-60.22967,-12.45718,0.0],[-60.13001,-12.42116,0.0],[-60.31316,-12.1006,0.0],[-60.17673,-12.12003,0.0],[-60.09595,-12.2525,0.0],[-60.10729,-12.13549,0.0],[-59.98705,-12.18051,0.0],[-59.98053,-11.80451,0.0],[-59.74091,-11.87666,0.0],[-59.81462,-12.00743,0.0],[-59.66292,-12.06038,0.0],[-59.66787,-11.94564,0.0],[-59.63027,-12.03678,0.0],[-59.54224,-11.96004,0.0],[-59.45426,-12.04133,0.0],[-59.3505,-11.98917,0.0],[-59.37493,-11.87638,0.0],[-59.28034,-11.85752,0.0],[-58.84738,-12.10521,0.0],[-58.68257,-12.11962,0.0],[-58.44385,-11.96469,0.0],[-58.38957,-12.45731,0.0],[-58.30335,-12.40676,0.0],[-58.23018,-12.48659,0.0],[-58.0854,-12.32217,0.0],[-58.02266,-12.39923,0.0],[-57.98002,-12.3543,0.0],[-57.89696,-12.54038,0.0],[-57.8559,-12.41167,0.0],[-57.77503,-12.48449,0.0],[-57.77628,-12.66664,0.0],[-58.03074,-12.74784,0.0],[-57.92583,-12.75301,0.0],[-58.00223,-12.83806,0.0],[-57.94213,-12.88832,0.0],[-58.03131,-12.92499,0.0],[-57.97094,-12.95051,0.0],[-57.99916,-13.06936,0.0],[-57.9211,-13.11926,0.0],[-57.82833,-13.09925,0.0],[-57.86581,-13.02462,0.0],[-57.78073,-13.02979,0.0],[-57.74528,-13.26138,0.0],[-57.68155,-13.21826,0.0],[-57.5507,-13.28545,0.0],[-57.45706,-13.53962,0.0],[-57.38499,-13.46838,0.0],[-57.32532,-13.51396,0.0],[-57.30698,-13.71493,0.0],[-57.22846,-13.56742,0.0],[-57.14382,-13.63744,0.0],[-57.19178,-13.71706,0.0],[-56.98612,-13.61666,0.0],[-56.82103,-13.70997,0.0],[-56.97236,-13.78363,0.0],[-56.9968,-13.88071,0.0],[-56.88698,-13.84591,0.0],[-56.81019,-13.9444,0.0],[-57.02139,-13.96623,0.0],[-56.91258,-13.94964,0.0],[-56.75654,-14.07282,0.0],[-56.64064,-14.02045,0.0],[-56.70689,-13.94895,0.0],[-56.57824,-13.91902,0.0],[-56.70849,-13.8557,0.0],[-56.54553,-13.58867,0.0],[-56.38041,-13.855,0.0],[-56.24007,-13.82301,0.0],[-56.21133,-13.66478,0.0],[-56.11039,-13.81448,0.0],[-55.97273,-13.73771,0.0],[-56.09199,-13.69349,0.0],[-56.11363,-13.60511,0.0],[-56.03321,-13.61408,0.0],[-56.14905,-13.56192,0.0],[-56.11334,-13.51153,0.0],[-56.28577,-13.51941,0.0],[-56.32668,-13.44368,0.0],[-56.36163,-13.54378,0.0],[-56.49038,-13.36665,0.0],[-56.37216,-13.19015,0.0],[-56.29825,-13.26095,0.0],[-56.19694,-13.10861,0.0],[-56.4805,-12.86466,0.0],[-56.27751,-12.57574,0.0],[-56.25397,-12.29475,0.0],[-56.10854,-12.10755,0.0],[-55.99835,-12.14465,0.0],[-56.21216,-12.35913,0.0],[-56.09037,-12.6838,0.0],[-55.92137,-12.65651,0.0],[-56.09038,-12.50453,0.0],[-55.92535,-12.53916,0.0],[-55.60054,-12.33054,0.0],[-55.49786,-12.87787,0.0],[-55.16555,-13.09384,0.0],[-55.17436,-13.34006,0.0],[-55.10464,-13.28724,0.0],[-54.80983,-13.36563,0.0],[-54.72704,-13.31114,0.0],[-54.60371,-13.39301,0.0],[-54.55661,-13.34535,0.0],[-54.32618,-13.70962,0.0],[-54.20325,-13.58158,0.0],[-54.05139,-13.56675,0.0],[-53.9914,-13.73026,0.0],[-53.96571,-13.61783,0.0],[-53.93661,-13.67127,0.0],[-53.84112,-13.55505,0.0],[-53.75448,-13.58922,0.0],[-53.67613,-13.51951,0.0],[-53.53703,-13.67274,0.0],[-53.39912,-13.4104,0.0],[-53.09665,-13.66481,0.0],[-53.04608,-13.4512,0.0],[-52.90751,-13.43525,0.0],[-52.93872,-13.33595,0.0],[-52.84952,-13.46604,0.0],[-52.48528,-13.33906,0.0],[-52.39277,-13.22654,0.0],[-52.24975,-13.41248,0.0],[-52.18631,-12.99869,0.0],[-52.03356,-12.96116,0.0],[-52.01013,-13.06372,0.0],[-51.93157,-13.05375,0.0],[-51.7494,-12.72606,0.0],[-51.51612,-12.64888,0.0],[-51.56547,-12.61284,0.0],[-51.46086,-12.44855,0.0],[-51.04315,-12.39016,0.0],[-51.03462,-12.33702,0.0],[-51.15354,-12.33479,0.0],[-51.04443,-12.24497,0.0],[-51.22925,-12.32354,0.0],[-51.22712,-12.2507,0.0],[-51.33521,-12.27872,0.0],[-51.42196,-12.14418,0.0],[-51.38891,-11.87654,0.0],[-51.5502,-11.81578,0.0],[-51.53922,-11.72629,0.0],[-51.3027,-11.58484,0.0],[-51.28284,-11.47031,0.0],[-51.43745,-11.50258,0.0],[-51.39932,-11.39318,0.0],[-51.56198,-11.33835,0.0],[-51.5635,-11.20698,0.0],[-51.70943,-11.24156,0.0],[-51.89694,-10.94743,0.0],[-51.9052,-10.77552,0.0],[-51.70481,-10.74117,0.0],[-51.64963,-10.85041,0.0],[-51.63598,-10.75651,0.0],[-51.57488,-10.82048,0.0],[-51.55106,-10.72491,0.0],[-51.49346,-10.78199,0.0],[-51.40597,-10.73977,0.0],[-51.26706,-10.90676,0.0],[-51.12486,-10.82973,0.0],[-51.22063,-10.68255,0.0],[-51.12604,-10.73649,0.0],[-51.04452,-10.68498,0.0],[-51.0063,-10.76279,0.0],[-51.02301,-10.6628,0.0],[-50.94689,-10.72703,0.0],[-50.91405,-10.6438,0.0],[-50.88304,-10.71041,0.0],[-50.72288,-10.60347,0.0],[-50.66946,-10.6525,0.0],[-50.54643,-10.52787,0.0],[-50.68694,-10.37671,0.0],[-50.56966,-10.38271,0.0],[-50.57478,-10.25661,0.0],[-50.43191,-10.23559,0.0],[-50.55761,-10.10353,0.0],[-50.39968,-10.04841,0.0],[-50.38923,-9.84877,0.0],[-50.16481,-9.66971,0.0],[-50.20915,-9.51494,0.0],[-50.31066,-9.48294,0.0],[-50.21055,-9.40086,0.0],[-50.2736,-9.36595,0.0],[-50.12452,-9.34565,0.0],[-50.1766,-9.2444,0.0],[-50.10441,-9.27304,0.0],[-49.96385,-9.04275,0.0],[-50.08427,-8.88943,0.0],[-50.03273,-8.80235,0.0],[-49.84777,-8.77687,0.0],[-50.04187,-8.73449,0.0],[-50.17496,-8.53345,0.0],[-50.01456,-8.42053,0.0],[-50.10091,-8.32467,0.0],[-50.03155,-8.2875,0.0],[-50.01328,-7.94123,0.0],[-49.94952,-7.91847,0.0],[-50.04971,-7.81109,0.0],[-49.96179,-7.76597,0.0],[-50.01795,-7.69445,0.0],[-49.88742,-7.68215,0.0],[-49.86289,-7.5297,0.0],[-49.72529,-7.55423,0.0],[-49.62128,-7.43803,0.0],[-49.6232,-7.50964,0.0],[-49.55654,-7.5003,0.0],[-49.5379,-7.62104,0.0],[-49.61857,-7.69606,0.0],[-49.55144,-7.74426,0.0],[-49.5204,-7.68335,0.0],[-49.52422,-7.76313,0.0],[-49.69879,-7.88608,0.0],[-49.50977,-8.06273,0.0],[-49.60303,-8.19294,0.0],[-49.51092,-8.18017,0.0],[-49.6611,-8.44871,0.0],[-49.66506,-8.68659,0.0],[-49.57254,-8.72813,0.0],[-49.41486,-8.54893,0.0],[-49.21537,-8.06269,0.0],[-49.11295,-8.1597,0.0],[-49.02354,-8.09275,0.0],[-49.01607,-8.45409,0.0],[-48.74845,-8.73595,0.0],[-48.80821,-8.80084,0.0],[-48.78295,-9.13903,0.0],[-48.64486,-9.21914,0.0],[-48.70114,-8.98593,0.0],[-48.52729,-8.66896,0.0],[-48.5942,-8.29069,0.0],[-48.5097,-8.16938,0.0],[-48.64445,-8.02079,0.0],[-48.57204,-7.91247,0.0],[-48.62736,-7.57067,0.0],[-48.39995,-7.51562,0.0],[-48.37387,-7.35145,0.0],[-48.26008,-7.26467,0.0],[-48.18674,-6.83381,0.0],[-48.08276,-6.86391,0.0],[-48.06448,-6.62085,0.0],[-47.94435,-6.6015,0.0],[-48.13938,-6.17456,0.0],[-48.07329,-6.11583,0.0],[-48.1885,-5.76663,0.0],[-48.07974,-5.71782,0.0],[-48.18391,-5.52537,0.0],[-48.0463,-5.51508,0.0],[-47.90678,-5.6229,0.0],[-47.92542,-5.41338,0.0],[-47.83432,-5.41287,0.0],[-47.88718,-5.24364,0.0],[-47.68842,-5.32741,0.0],[-47.43296,-5.22276,0.0],[-47.16973,-5.38413,0.0],[-47.11076,-5.50634,0.0],[-46.84676,-5.32597,0.0],[-46.6643,-5.48183,0.0],[-46.66396,-5.29161,0.0],[-46.42125,-5.39454,0.0],[-46.28164,-5.26922,0.0],[-45.89061,-5.31872,0.0],[-45.75951,-5.24321,0.0],[-45.79013,-5.13007,0.0],[-45.66861,-5.10292,0.0],[-45.58601,-4.89602,0.0],[-45.65808,-4.86215,0.0],[-45.63114,-4.64821,0.0],[-45.75877,-4.3919,0.0],[-45.65422,-4.35153,0.0],[-45.38051,-4.51301,0.0],[-45.37318,-4.70392,0.0],[-44.93916,-4.59662,0.0],[-45.05895,-4.48613,0.0],[-44.73121,-4.29707,0.0],[-44.71908,-4.036,0.0],[-44.65238,-4.02613,0.0],[-44.6269,-4.11982,0.0],[-44.57344,-3.94216,0.0],[-44.67392,-3.61738,0.0],[-44.58684,-3.58528,0.0],[-44.49976,-3.35564,0.0],[-44.33623,-3.24285,0.0],[-44.31821,-3.38694,0.0],[-44.26001,-3.24355,0.0],[-44.15622,-3.19955,0.0],[-44.14648,-3.31254,0.0],[-44.06594,-3.19602,0.0],[-44.13319,-3.40031,0.0],[-44.02847,-3.30228,0.0],[-43.87953,-3.45891,0.0],[-44.02347,-3.29004,0.0],[-43.98296,-3.06699,0.0],[-44.03951,-3.03871,0.0],[-43.9082,-2.92496,0.0],[-43.96752,-2.80032,0.0],[-43.83523,-2.80296,0.0],[-43.81503,-2.70318,0.0],[-43.7473,-2.70682,0.0],[-43.84283,-2.62032,0.0],[-43.6786,-2.54682,0.0],[-43.80306,-2.45283,0.0],[-43.64564,-2.40273,0.0],[-43.58301,-2.29272,0.0],[-43.71984,-2.28574,0.0],[-43.7268,-2.38647,0.0],[-43.83857,-2.41494,0.0],[-43.8569,-2.52162,0.0],[-44.12261,-2.75895,0.0],[-44.30911,-2.77263,0.0],[-44.03678,-2.55703,0.0],[-44.05639,-2.46063,0.0],[-44.12381,-2.47549,0.0],[-44.02666,-2.39981,0.0],[-44.30446,-2.48628,0.0],[-44.42442,-2.94301,0.0],[-44.61282,-3.03346,0.0],[-44.68093,-2.97855,0.0],[-44.62747,-2.70382,0.0],[-44.50909,-2.43628,0.0],[-44.35788,-2.33766,0.0],[-44.46375,-2.14417,0.0],[-44.68264,-2.27217,0.0],[-44.48124,-1.9865,0.0],[-44.60195,-1.74026,0.0],[-44.76146,-1.70823,0.0],[-44.65688,-1.65567,0.0],[-44.67817,-1.56655,0.0],[-44.90935,-1.60178,0.0],[-44.84647,-1.41423,0.0],[-44.96084,-1.51312,0.0],[-45.19546,-1.48668,0.0],[-45.25413,-1.59138,0.0],[-45.39471,-1.48827,0.0],[-45.30077,-1.43703,0.0],[-45.34037,-1.31367,0.0],[-45.46769,-1.48054,0.0],[-45.418,-1.29431,0.0],[-45.50726,-1.39481,0.0],[-45.59342,-1.26651,0.0],[-45.7094,-1.39484,0.0],[-45.72151,-1.10878,0.0],[-45.8118,-1.25306,0.0],[-45.79988,-1.16179,0.0],[-45.86138,-1.21568,0.0],[-45.89308,-1.14655,0.0],[-45.86709,-1.05064,0.0],[-45.95261,-1.20104,0.0],[-45.97089,-1.05205,0.0],[-46.03567,-1.11025,0.0],[-46.08383,-1.02106,0.0],[-46.20668,-1.03845,0.0],[-46.20764,-0.88979,0.0],[-46.34595,-1.10678,0.0],[-46.34693,-1.00896,0.0],[-46.49701,-0.97764,0.0],[-46.42582,-0.86645,0.0],[-46.5319,-0.98057,0.0],[-46.53342,-0.89903,0.0],[-46.64033,-0.97463,0.0],[-46.62259,-0.80385,0.0],[-46.76307,-0.81717,0.0],[-46.8069,-0.91682,0.0],[-46.83842,-0.74521,0.0],[-46.93322,-0.86817,0.0],[-46.96236,-0.7086,0.0],[-47.04918,-0.80036,0.0],[-47.08654,-0.68173,0.0],[-47.15573,-0.74176,0.0],[-47.32189,-0.59139,0.0],[-47.40438,-0.65507,0.0],[-47.48056,-0.59356,0.0],[-47.48157,-0.73908,0.0],[-47.56615,-0.58287,0.0],[-47.62968,-0.70342,0.0],[-47.709,-0.5377,0.0],[-47.76476,-0.63481,0.0],[-47.82198,-0.56175,0.0],[-47.83392,-0.67377,0.0],[-47.90561,-0.55747,0.0],[-48.29377,-0.91968,0.0],[-48.47472,-0.8739,0.0],[-48.51218,-0.75969,0.0],[-48.40353,-0.25626,0.0],[-48.91476,-0.23608,0.0],[-49.19764,-0.13681,0.0],[-49.38342,-0.19597,0.0],[-49.43861,-0.12649,0.0],[-49.38521,0.05476,0.0],[-49.63223,0.07489,0.0],[-49.69958,0.15051,0.0],[-49.51307,0.30565,0.0],[-49.54597,0.37317,0.0],[-50.17462,0.34792,0.0],[-50.03204,0.57704,0.0],[-50.23124,0.73014,0.0],[-50.09319,0.769,0.0],[-49.90658,1.01556,0.0],[-49.90904,1.66277,0.0],[-50.16085,1.81432,0.0],[-50.44484,1.81504,0.0],[-50.68187,2.1334,0.0],[-51.04275,3.13505,0.0],[-51.0764,3.89795,0.0],[-51.17578,3.89646,0.0],[-51.19912,4.12522,0.0],[-51.4138,4.386,0.0],[-51.60507,4.47683,0.0],[-51.63284,4.182,0.0],[-51.79889,4.60966,0.0],[-51.90692,4.66207,0.0],[-51.95484,4.50979,0.0],[-52.0088,4.70887,0.0],[-52.27868,4.84516,0.0],[-52.28017,4.93766,0.0],[-52.36296,4.923,0.0],[-52.96089,5.46036,0.0],[-53.46969,5.57003,0.0],[-53.89073,5.76959,0.0],[-54.00786,5.5664,0.0],[-54.02113,5.82077,0.0],[-54.19858,5.88043,0.0],[-54.83414,5.99401,0.0],[-55.15865,5.97359,0.0],[-55.10512,5.87718,0.0],[-55.66738,5.97904,0.0],[-55.92418,5.89657,0.0],[-55.91341,5.78072,0.0],[-56.94384,6.00015,0.0],[-57.14113,5.81627,0.0],[-57.24482,6.19243,0.0],[-57.45372,6.32503,0.0],[-57.53068,6.27791,0.0],[-57.63985,6.47284,0.0],[-58.03001,6.8144,0.0],[-58.33307,6.89501,0.0],[-58.4807,6.79879,0.0],[-58.60546,6.41461,0.0],[-58.60413,6.78821,0.0],[-58.48772,7.01558,0.0],[-58.47257,7.28586,0.0],[-58.60147,7.51049,0.0],[-59.22191,8.09377,0.0],[-59.76599,8.4023,0.0],[-59.81889,8.39408,0.0],[-59.47581,8.1783,0.0],[-59.84287,8.35997,0.0],[-60.0101,8.5728,0.0],[-60.39906,8.62661,0.0],[-60.47208,8.52227,0.0],[-60.81629,8.59121,0.0],[-60.67235,8.64437,0.0],[-60.6596,8.77712,0.0],[-60.76259,8.73049,0.0],[-60.68372,8.78557,0.0],[-60.70958,8.85316,0.0],[-60.78747,8.82572,0.0],[-60.73128,8.88742,0.0],[-60.84793,8.91465,0.0],[-60.77056,8.97002,0.0],[-60.86547,8.98267,0.0],[-60.75908,9.0515,0.0],[-60.81368,9.10689,0.0],[-60.73046,9.19575,0.0],[-61.00153,9.18244,0.0],[-60.78712,9.31377,0.0],[-60.85081,9.4451,0.0],[-61.21274,9.59389,0.0],[-61.53771,9.87058,0.0],[-61.41717,9.74583,0.0],[-61.66362,9.89898,0.0],[-61.57586,9.79405,0.0],[-61.86294,9.80731,0.0],[-62.04076,9.96667,0.0]]]},"properties":{"objectid":1,"amzbiog":1,"area_sig_ha":701090198.41630316}}]}